STARLINK-36446          
1 67412U 26005J   26031.16668981 -.02041778  00000+0 -30957-1 0  9995
2 67412  43.0008  93.7399 0001315 263.9084  91.5310 15.56892653  4158
STARLINK-36442          
1 67413U 26005K   26031.16668981 -.02037952  00000+0 -30895-1 0  9996
2 67413  43.0006  93.7337 0001420 271.3669  85.9903 15.56889232  4152
STARLINK-36506          
1 67414U 26005L   26031.16668981 -.02028006  00000+0 -30733-1 0  9998
2 67414  43.0007  93.7292 0001474 269.6989  89.5773 15.56882897  4153
STARLINK-36468          
1 67415U 26005M   26031.16668981 -.02036487  00000+0 -30874-1 0  9997
2 67415  43.0010  93.7251 0001291 272.4970  88.6963 15.56886974  4108
STARLINK-36487          
1 67416U 26005N   26031.16668981 -.02040453  00000+0 -30935-1 0  9994
2 67416  43.0009  93.7201 0001450 268.0499  95.0596 15.56890631  4150
STARLINK-36374          
1 67417U 26005P   26031.16668981 -.02023375  00000+0 -30657-1 0  9990
2 67417  43.0009  93.7157 0001396 271.7898  93.2345 15.56881705  4158
STARLINK-36455          
1 67418U 26005Q   26031.16668981 -.02033462  00000+0 -30823-1 0  9994
2 67418  43.0010  93.7106 0001390 267.8981  99.0460 15.56886343  4153
STARLINK-36424          
1 67419U 26005R   26031.16668981 -.02036731  00000+0 -30877-1 0  9996
2 67419  43.0007  93.7053 0001327 265.5585 103.3028 15.56888138  4159
STARLINK-35564          
1 67420U 26005S   26031.16668981 -.02044970  00000+0 -31009-1 0  9990
2 67420  43.0004  93.7009 0001339 265.4932 105.2827 15.56894155  4049
STARLINK-36431          
1 67421U 26005T   26031.16668981 -.02038895  00000+0 -30911-1 0  9991
2 67421  43.0009  93.6965 0001333 265.5161 107.1784 15.56889899  3944
STARLINK-36418          
1 67422U 26005U   26031.16668981 -.02040415  00000+0 -30935-1 0  9999
2 67422  43.0007  93.6912 0001343 267.3004 107.3099 15.56891204  4105
STARLINK-36465          
1 67423U 26005V   26031.16668981 -.02036116  00000+0 -30869-1 0  9999
2 67423  43.0009  93.6869 0001335 272.4057 104.1260 15.56885574  3898
