CCSDS_OMM_VERS = 2.0
CREATION_DATE  = 
ORIGINATOR     = 

OBJECT_NAME    = STARLINK-36446
OBJECT_ID      = 2026-005J
CENTER_NAME    = EARTH
REF_FRAME      = TEME
TIME_SYSTEM    = UTC
MEAN_ELEMENT_THEORY = SGP/SGP4

EPOCH          = 2026-01-31T04:00:01.999584
MEAN_MOTION    = 15.56892653
ECCENTRICITY   = .0001315
INCLINATION    = 43.0008
RA_OF_ASC_NODE = 93.7399
ARG_OF_PERICENTER = 263.9084
MEAN_ANOMALY   = 91.5310

EPHEMERIS_TYPE = 0
CLASSIFICATION_TYPE = U
NORAD_CAT_ID   = 67412
ELEMENT_SET_NO = 999
REV_AT_EPOCH   = 415
BSTAR          = -.30957E-1
MEAN_MOTION_DOT = -.2041778E-1
MEAN_MOTION_DDOT = 0

CCSDS_OMM_VERS = 2.0
CREATION_DATE  = 
ORIGINATOR     = 

OBJECT_NAME    = STARLINK-36442
OBJECT_ID      = 2026-005K
CENTER_NAME    = EARTH
REF_FRAME      = TEME
TIME_SYSTEM    = UTC
MEAN_ELEMENT_THEORY = SGP/SGP4

EPOCH          = 2026-01-31T04:00:01.999584
MEAN_MOTION    = 15.56889232
ECCENTRICITY   = .000142
INCLINATION    = 43.0006
RA_OF_ASC_NODE = 93.7337
ARG_OF_PERICENTER = 271.3669
MEAN_ANOMALY   = 85.9903

EPHEMERIS_TYPE = 0
CLASSIFICATION_TYPE = U
NORAD_CAT_ID   = 67413
ELEMENT_SET_NO = 999
REV_AT_EPOCH   = 415
BSTAR          = -.30895E-1
MEAN_MOTION_DOT = -.2037952E-1
MEAN_MOTION_DDOT = 0

CCSDS_OMM_VERS = 2.0
CREATION_DATE  = 
ORIGINATOR     = 

OBJECT_NAME    = STARLINK-36506
OBJECT_ID      = 2026-005L
CENTER_NAME    = EARTH
REF_FRAME      = TEME
TIME_SYSTEM    = UTC
MEAN_ELEMENT_THEORY = SGP/SGP4

EPOCH          = 2026-01-31T04:00:01.999584
MEAN_MOTION    = 15.56882897
ECCENTRICITY   = .0001474
INCLINATION    = 43.0007
RA_OF_ASC_NODE = 93.7292
ARG_OF_PERICENTER = 269.6989
MEAN_ANOMALY   = 89.5773

EPHEMERIS_TYPE = 0
CLASSIFICATION_TYPE = U
NORAD_CAT_ID   = 67414
ELEMENT_SET_NO = 999
REV_AT_EPOCH   = 415
BSTAR          = -.30733E-1
MEAN_MOTION_DOT = -.2028006E-1
MEAN_MOTION_DDOT = 0

CCSDS_OMM_VERS = 2.0
CREATION_DATE  = 
ORIGINATOR     = 

OBJECT_NAME    = STARLINK-36468
OBJECT_ID      = 2026-005M
CENTER_NAME    = EARTH
REF_FRAME      = TEME
TIME_SYSTEM    = UTC
MEAN_ELEMENT_THEORY = SGP/SGP4

EPOCH          = 2026-01-31T04:00:01.999584
MEAN_MOTION    = 15.56886974
ECCENTRICITY   = .0001291
INCLINATION    = 43.0010
RA_OF_ASC_NODE = 93.7251
ARG_OF_PERICENTER = 272.4970
MEAN_ANOMALY   = 88.6963

EPHEMERIS_TYPE = 0
CLASSIFICATION_TYPE = U
NORAD_CAT_ID   = 67415
ELEMENT_SET_NO = 999
REV_AT_EPOCH   = 410
BSTAR          = -.30874E-1
MEAN_MOTION_DOT = -.2036487E-1
MEAN_MOTION_DDOT = 0

CCSDS_OMM_VERS = 2.0
CREATION_DATE  = 
ORIGINATOR     = 

OBJECT_NAME    = STARLINK-36487
OBJECT_ID      = 2026-005N
CENTER_NAME    = EARTH
REF_FRAME      = TEME
TIME_SYSTEM    = UTC
MEAN_ELEMENT_THEORY = SGP/SGP4

EPOCH          = 2026-01-31T04:00:01.999584
MEAN_MOTION    = 15.56890631
ECCENTRICITY   = .000145
INCLINATION    = 43.0009
RA_OF_ASC_NODE = 93.7201
ARG_OF_PERICENTER = 268.0499
MEAN_ANOMALY   = 95.0596

EPHEMERIS_TYPE = 0
CLASSIFICATION_TYPE = U
NORAD_CAT_ID   = 67416
ELEMENT_SET_NO = 999
REV_AT_EPOCH   = 415
BSTAR          = -.30935E-1
MEAN_MOTION_DOT = -.2040453E-1
MEAN_MOTION_DDOT = 0

CCSDS_OMM_VERS = 2.0
CREATION_DATE  = 
ORIGINATOR     = 

OBJECT_NAME    = STARLINK-36374
OBJECT_ID      = 2026-005P
CENTER_NAME    = EARTH
REF_FRAME      = TEME
TIME_SYSTEM    = UTC
MEAN_ELEMENT_THEORY = SGP/SGP4

EPOCH          = 2026-01-31T04:00:01.999584
MEAN_MOTION    = 15.56881705
ECCENTRICITY   = .0001396
INCLINATION    = 43.0009
RA_OF_ASC_NODE = 93.7157
ARG_OF_PERICENTER = 271.7898
MEAN_ANOMALY   = 93.2345

EPHEMERIS_TYPE = 0
CLASSIFICATION_TYPE = U
NORAD_CAT_ID   = 67417
ELEMENT_SET_NO = 999
REV_AT_EPOCH   = 415
BSTAR          = -.30657E-1
MEAN_MOTION_DOT = -.2023375E-1
MEAN_MOTION_DDOT = 0

CCSDS_OMM_VERS = 2.0
CREATION_DATE  = 
ORIGINATOR     = 

OBJECT_NAME    = STARLINK-36455
OBJECT_ID      = 2026-005Q
CENTER_NAME    = EARTH
REF_FRAME      = TEME
TIME_SYSTEM    = UTC
MEAN_ELEMENT_THEORY = SGP/SGP4

EPOCH          = 2026-01-31T04:00:01.999584
MEAN_MOTION    = 15.56886343
ECCENTRICITY   = .000139
INCLINATION    = 43.0010
RA_OF_ASC_NODE = 93.7106
ARG_OF_PERICENTER = 267.8981
MEAN_ANOMALY   = 99.0460

EPHEMERIS_TYPE = 0
CLASSIFICATION_TYPE = U
NORAD_CAT_ID   = 67418
ELEMENT_SET_NO = 999
REV_AT_EPOCH   = 415
BSTAR          = -.30823E-1
MEAN_MOTION_DOT = -.2033462E-1
MEAN_MOTION_DDOT = 0

CCSDS_OMM_VERS = 2.0
CREATION_DATE  = 
ORIGINATOR     = 

OBJECT_NAME    = STARLINK-36424
OBJECT_ID      = 2026-005R
CENTER_NAME    = EARTH
REF_FRAME      = TEME
TIME_SYSTEM    = UTC
MEAN_ELEMENT_THEORY = SGP/SGP4

EPOCH          = 2026-01-31T04:00:01.999584
MEAN_MOTION    = 15.56888138
ECCENTRICITY   = .0001327
INCLINATION    = 43.0007
RA_OF_ASC_NODE = 93.7053
ARG_OF_PERICENTER = 265.5585
MEAN_ANOMALY   = 103.3028

EPHEMERIS_TYPE = 0
CLASSIFICATION_TYPE = U
NORAD_CAT_ID   = 67419
ELEMENT_SET_NO = 999
REV_AT_EPOCH   = 415
BSTAR          = -.30877E-1
MEAN_MOTION_DOT = -.2036731E-1
MEAN_MOTION_DDOT = 0

CCSDS_OMM_VERS = 2.0
CREATION_DATE  = 
ORIGINATOR     = 

OBJECT_NAME    = STARLINK-35564
OBJECT_ID      = 2026-005S
CENTER_NAME    = EARTH
REF_FRAME      = TEME
TIME_SYSTEM    = UTC
MEAN_ELEMENT_THEORY = SGP/SGP4

EPOCH          = 2026-01-31T04:00:01.999584
MEAN_MOTION    = 15.56894155
ECCENTRICITY   = .0001339
INCLINATION    = 43.0004
RA_OF_ASC_NODE = 93.7009
ARG_OF_PERICENTER = 265.4932
MEAN_ANOMALY   = 105.2827

EPHEMERIS_TYPE = 0
CLASSIFICATION_TYPE = U
NORAD_CAT_ID   = 67420
ELEMENT_SET_NO = 999
REV_AT_EPOCH   = 404
BSTAR          = -.31009E-1
MEAN_MOTION_DOT = -.204497E-1
MEAN_MOTION_DDOT = 0

CCSDS_OMM_VERS = 2.0
CREATION_DATE  = 
ORIGINATOR     = 

OBJECT_NAME    = STARLINK-36431
OBJECT_ID      = 2026-005T
CENTER_NAME    = EARTH
REF_FRAME      = TEME
TIME_SYSTEM    = UTC
MEAN_ELEMENT_THEORY = SGP/SGP4

EPOCH          = 2026-01-31T04:00:01.999584
MEAN_MOTION    = 15.56889899
ECCENTRICITY   = .0001333
INCLINATION    = 43.0009
RA_OF_ASC_NODE = 93.6965
ARG_OF_PERICENTER = 265.5161
MEAN_ANOMALY   = 107.1784

EPHEMERIS_TYPE = 0
CLASSIFICATION_TYPE = U
NORAD_CAT_ID   = 67421
ELEMENT_SET_NO = 999
REV_AT_EPOCH   = 394
BSTAR          = -.30911E-1
MEAN_MOTION_DOT = -.2038895E-1
MEAN_MOTION_DDOT = 0

CCSDS_OMM_VERS = 2.0
CREATION_DATE  = 
ORIGINATOR     = 

OBJECT_NAME    = STARLINK-36418
OBJECT_ID      = 2026-005U
CENTER_NAME    = EARTH
REF_FRAME      = TEME
TIME_SYSTEM    = UTC
MEAN_ELEMENT_THEORY = SGP/SGP4

EPOCH          = 2026-01-31T04:00:01.999584
MEAN_MOTION    = 15.56891204
ECCENTRICITY   = .0001343
INCLINATION    = 43.0007
RA_OF_ASC_NODE = 93.6912
ARG_OF_PERICENTER = 267.3004
MEAN_ANOMALY   = 107.3099

EPHEMERIS_TYPE = 0
CLASSIFICATION_TYPE = U
NORAD_CAT_ID   = 67422
ELEMENT_SET_NO = 999
REV_AT_EPOCH   = 410
BSTAR          = -.30935E-1
MEAN_MOTION_DOT = -.2040415E-1
MEAN_MOTION_DDOT = 0

CCSDS_OMM_VERS = 2.0
CREATION_DATE  = 
ORIGINATOR     = 

OBJECT_NAME    = STARLINK-36465
OBJECT_ID      = 2026-005V
CENTER_NAME    = EARTH
REF_FRAME      = TEME
TIME_SYSTEM    = UTC
MEAN_ELEMENT_THEORY = SGP/SGP4

EPOCH          = 2026-01-31T04:00:01.999584
MEAN_MOTION    = 15.56885574
ECCENTRICITY   = .0001335
INCLINATION    = 43.0009
RA_OF_ASC_NODE = 93.6869
ARG_OF_PERICENTER = 272.4057
MEAN_ANOMALY   = 104.1260

EPHEMERIS_TYPE = 0
CLASSIFICATION_TYPE = U
NORAD_CAT_ID   = 67423
ELEMENT_SET_NO = 999
REV_AT_EPOCH   = 389
BSTAR          = -.30869E-1
MEAN_MOTION_DOT = -.2036116E-1
MEAN_MOTION_DDOT = 0

